NORAD_CAT_ID,OBJECT_NAME,OBJECT_TYPE,EPOCH,MEAN_MOTION,ECCENTRICITY,INCLINATION,RA_OF_ASC_NODE,ARG_OF_PERICENTER,MEAN_ANOMALY,BSTAR,MEAN_MOTION_DOT,MEAN_MOTION_DDOT,TLE_LINE0,TLE_LINE1,TLE_LINE2,SEMIMAJOR_AXIS,PERIOD,APOGEE,PERIGEE,DECAYED
51469.0,STARLINK-3182,PAYLOAD,2023-01-15 02:23:46,15.0883386,0.0001751999999999,53.2152,39.8409,58.5884,301.5279,0.00047164,7.225e-05,0.0,0 STARLINK-3182,1 51469U 22010P   23015.09984513  .00007225  00000-0  47164-3 0  9991,2 51469  53.2152  39.8409 0001752  58.5884 301.5279 15.08833860 53772,6917.899,95.438,540.976,538.552,0.0
51469.0,STARLINK-3182,PAYLOAD,2023-01-15 08:45:19,15.08849245,0.0001903,53.216,38.6542,70.9702,289.1496,0.00062149,9.619e-05,0.0,0 STARLINK-3182,1 51469U 22010P   23015.36480326  .00009619  00000-0  62149-3 0  9993,2 51469  53.2160  38.6542 0001903  70.9702 289.1496 15.08849245 53812,6917.852,95.437,541.034,538.401,0.0
51469.0,STARLINK-3182,PAYLOAD,2023-01-15 18:17:37,15.08847649,0.0001662,53.2156,36.8695,68.585,291.5319,0.00077959,0.00012144,0.0,0 STARLINK-3182,1 51469U 22010P   23015.76224380  .00012144  00000-0  77959-3 0  9995,2 51469  53.2156  36.8695 0001662  68.5850 291.5319 15.08847649 53373,6917.857,95.437,540.872,538.572,0.0
51469.0,STARLINK-3182,PAYLOAD,2023-01-16 11:46:51,15.08872112,0.0002051,53.2151,33.5954,66.1753,293.9454,0.0011443,0.00017987,0.0,0 STARLINK-3182,1 51469U 22010P   23016.49087578  .00017987  00000-0  11443-2 0  9997,2 51469  53.2151  33.5954 0002051  66.1753 293.9454 15.08872112 53480,6917.781999999999,95.436,541.066,538.2280000000001,0.0
51469.0,STARLINK-3182,PAYLOAD,2023-01-16 18:08:24,15.08837959,0.0001865999999999,53.2145,32.4026,79.2544,280.8658,-0.00013921,-2.503e-05,0.0,0 STARLINK-3182,1 51469U 22010P   23016.75584125 -.00002503  00000-0 -13921-3 0  9990,2 51469  53.2145  32.4026 0001866  79.2544 280.8658 15.08837959 54029,6917.887,95.438,541.043,538.461,0.0
51469.0,STARLINK-3182,PAYLOAD,2023-01-17 06:51:30,15.08823296,0.0002475,53.215,30.0303,82.4412,277.6861,-9.8623e-05,-1.857e-05,0.0,0 STARLINK-3182,1 51469U 22010P   23017.28577262 -.00001857  00000-0 -98623-4 0  9997,2 51469  53.2150  30.0303 0002475  82.4412 277.6861 15.08823296 54102,6917.931,95.439,541.509,538.0840000000001,0.0
51469.0,STARLINK-3182,PAYLOAD,2023-01-17 10:02:17,15.08814862,0.0001821,53.2141,29.4344,84.8942,275.2258,-1.7911e-05,-5.73e-06,0.0,0 STARLINK-3182,1 51469U 22010P   23017.41825620 -.00000573  00000-0 -17911-4 0  9991,2 51469  53.2141  29.4344 0001821  84.8942 275.2258 15.08814862 53626,6917.956999999999,95.439,541.082,538.562,0.0
51469.0,STARLINK-3182,PAYLOAD,2023-01-17 17:59:13,15.08827641,0.0001744,53.2145,27.9467,87.8113,272.3079,0.0009609,0.00015033,0.0,0 STARLINK-3182,1 51469U 22010P   23017.74946053  .00015033  00000-0  96090-3 0  9990,2 51469  53.2145  27.9467 0001744  87.8113 272.3079 15.08827641 53679,6917.918000000001,95.438,540.99,538.577,0.0
51469.0,STARLINK-3182,PAYLOAD,2023-01-18 09:53:04,15.0887907,0.0001703,53.2141,24.9723,92.4811,267.6376,0.0024795,0.00039437,0.0,0 STARLINK-3182,1 51469U 22010P   23018.41185513  .00039437  00000-0  24795-2 0  9997,2 51469  53.2141  24.9723 0001703  92.4811 267.6376 15.08879070 54276,6917.761,95.435,540.804,538.448,0.0
51469.0,STARLINK-3182,PAYLOAD,2023-01-18 19:25:22,15.08869103,0.0001475,53.2147,23.1877,97.8915,262.2245,0.0011975999999999,0.00018838,0.0,0 STARLINK-3182,1 51469U 22010P   23018.80929081  .00018838  00000-0  11976-2 0  9995,2 51469  53.2147  23.1877 0001475  97.8915 262.2245 15.08869103 54332,6917.791,95.436,540.677,538.636,0.0
51469.0,STARLINK-3182,PAYLOAD,2023-01-19 06:33:04,15.08875558,0.0001364,53.2148,21.1068,95.1774,264.9374,0.0015381,0.000243,0.0,0 STARLINK-3182,1 51469U 22010P   23019.27296401  .00024300  00000-0  15381-2 0  9995,2 51469  53.2148  21.1068 0001364  95.1774 264.9374 15.08875558 54405,6917.772,95.435,540.58,538.693,0.0
51469.0,STARLINK-3182,PAYLOAD,2023-01-19 09:43:50,15.08886113,0.0001423,53.2143,20.5114,91.7782,268.3373,0.0019833,0.00031457,0.0,0 STARLINK-3182,1 51469U 22010P   23019.40543985  .00031457  00000-0  19833-2 0  9999,2 51469  53.2143  20.5114 0001423  91.7782 268.3373 15.08886113 53924,6917.7390000000005,95.435,540.589,538.62,0.0
51469.0,STARLINK-3182,PAYLOAD,2023-01-20 11:10:01,15.088445000000002,0.000158,53.2151,15.7543,72.8112,287.3053,0.0013832,0.00021797,0.0,0 STARLINK-3182,1 51469U 22010P   23020.46529153  .00021797  00000-0  13832-2 0  9997,2 51469  53.2151  15.7543 0001580  72.8112 287.3053 15.08844500 54589,6917.866999999999,95.437,540.825,538.639,0.0
51469.0,STARLINK-3182,PAYLOAD,2023-01-20 14:20:47,15.08830003,0.0001493,53.2161,15.1626,65.9433,294.1715,0.00051406,7.901e-05,0.0,0 STARLINK-3182,1 51469U 22010P   23020.59777663  .00007901  00000-0  51406-3 0  9993,2 51469  53.2161  15.1626 0001493  65.9433 294.1715 15.08830003 54605,6917.911,95.438,540.809,538.743,0.0
51469.0,STARLINK-3182,PAYLOAD,2023-01-21 06:14:38,15.08866111,0.0001544,53.2151,12.1851,79.9224,280.1942,0.0023656,0.00037589,0.0,0 STARLINK-3182,1 51469U 22010P   23021.26017302  .00037589  00000-0  23656-2 0  9995,2 51469  53.2151  12.1851 0001544  79.9224 280.1942 15.08866111 54708,6917.801,95.436,540.734,538.597,0.0
51469.0,STARLINK-3182,PAYLOAD,2023-01-21 15:46:57,15.08852305,0.0001675999999999,53.2156,10.3995,83.2343,276.884,0.00079055,0.0001231999999999,0.0,0 STARLINK-3182,1 51469U 22010P   23021.65761227  .00012320  00000-0  79055-3 0  9991,2 51469  53.2156  10.3995 0001676  83.2343 276.8840 15.08852305 54763,6917.843000000001,95.437,540.867,538.548,0.0
51469.0,STARLINK-3182,PAYLOAD,2023-01-22 06:05:25,15.08853949,0.0001756,53.2167,7.7275,106.3642,253.7543,0.00058403,9.023e-05,0.0,0 STARLINK-3182,1 51469U 22010P   23022.25377065  .00009023  00000-0  58403-3 0  9991,2 51469  53.2167   7.7275 0001756 106.3642 253.7543 15.08853949 54853,6917.838000000001,95.437,540.918,538.488,0.0
51469.0,STARLINK-3182,PAYLOAD,2023-01-22 09:16:11,15.08868782,0.0001561999999999,53.216,7.1296,97.3555,262.7614,0.0013257,0.0002089,0.0,0 STARLINK-3182,1 51469U 22010P   23022.38624799  .00020890  00000-0  13257-2 0  9996,2 51469  53.2160   7.1296 0001562  97.3555 262.7614 15.08868782 54872,6917.792,95.436,540.738,538.577,0.0
51469.0,STARLINK-3182,PAYLOAD,2023-01-22 15:37:45,15.08839744,0.0002176,53.2161,5.9381,94.4901,265.634,0.00084534,0.00013191,0.0,0 STARLINK-3182,1 51469U 22010P   23022.65121683  .00013191  00000-0  84534-3 0  9993,2 51469  53.2161   5.9381 0002176  94.4901 265.6340 15.08839744 54918,6917.880999999999,95.438,541.252,538.241,0.0
51469.0,STARLINK-3182,PAYLOAD,2023-01-23 07:31:36,15.08837222,0.0001535,53.2158,2.9675,122.961,237.153,0.0012851,0.00020222,0.0,0 STARLINK-3182,1 51469U 22010P   23023.31361821  .00020222  00000-0  12851-2 0  9992,2 51469  53.2158   2.9675 0001535 122.9610 237.1530 15.08837222 55015,6917.889,95.438,540.816,538.692,0.0
51469.0,STARLINK-3182,PAYLOAD,2023-01-23 15:28:32,15.08838882,0.0001658,53.2159,1.4798,102.6984,257.4193,0.00060054,9.282e-05,0.0,0 STARLINK-3182,1 51469U 22010P   23023.64482203  .00009282  00000-0  60054-3 0  9998,2 51469  53.2159   1.4798 0001658 102.6984 257.4193 15.08838882 55069,6917.884,95.438,540.896,538.602,0.0
51469.0,STARLINK-3182,PAYLOAD,2023-01-24 05:47:01,15.08837726,0.0001724,53.2163,358.8031,103.022,257.0965,0.00025471,3.768e-05,0.0,0 STARLINK-3182,1 51469U 22010P   23024.24098452  .00003768  00000-0  25471-3 0  9991,2 51469  53.2163 358.8031 0001724 103.0220 257.0965 15.08837726 55154,6917.887,95.438,540.945,538.56,0.0
51469.0,STARLINK-3182,PAYLOAD,2023-01-25 07:13:11,15.0884762,0.0001530999999999,53.2169,354.0448,101.9559,258.1605,0.00040071,6.096e-05,0.0,0 STARLINK-3182,1 51469U 22010P   23025.30082293  .00006096  00000-0  40071-3 0  9995,2 51469  53.2169 354.0448 0001531 101.9559 258.1605 15.08847620 54817,6917.857,95.437,540.781,538.663,0.0
51469.0,STARLINK-3182,PAYLOAD,2023-01-25 15:10:06,15.08843532,0.0001469,53.2177,352.5568,105.729,254.3864,0.00018305,2.627e-05,0.0,0 STARLINK-3182,1 51469U 22010P   23025.63202346  .00002627  00000-0  18305-3 0  9995,2 51469  53.2177 352.5568 0001469 105.7290 254.3864 15.08843532 55360,6917.87,95.437,540.751,538.7180000000001,0.0
51469.0,STARLINK-3182,PAYLOAD,2023-01-26 07:03:57,15.08852394,0.0001587,53.2161,349.5825,100.4533,259.6638,0.00035493,5.367e-05,0.0,0 STARLINK-3182,1 51469U 22010P   23026.29442079  .00005367  00000-0  35493-3 0  9998,2 51469  53.2161 349.5825 0001587 100.4533 259.6638 15.08852394 54966,6917.843000000001,95.437,540.805,538.61,0.0
51469.0,STARLINK-3182,PAYLOAD,2023-01-26 22:57:49,15.08844812,0.000144,53.2155,346.6098,92.9434,267.1723,0.00023923,3.522e-05,0.0,0 STARLINK-3182,1 51469U 22010P   23026.95682372  .00003522  00000-0  23923-3 0  9999,2 51469  53.2155 346.6098 0001440  92.9434 267.1723 15.08844812 55564,6917.866,95.437,540.727,538.735,0.0
51469.0,STARLINK-3182,PAYLOAD,2023-01-27 06:54:45,15.08851443,0.0001419999999999,53.2156,345.1224,93.9803,266.1352,0.00036062,5.458e-05,0.0,0 STARLINK-3182,1 51469U 22010P   23027.28802107  .00005458  00000-0  36062-3 0  9994,2 51469  53.2156 345.1224 0001420  93.9803 266.1352 15.08851443 55115,6917.845,95.437,540.693,538.7280000000001,0.0
51469.0,STARLINK-3182,PAYLOAD,2023-01-28 05:10:08,15.08847682,0.0001217999999999,53.2161,340.9608,86.1106,274.0025,0.00030617,4.589e-05,0.0,0 STARLINK-3182,1 51469U 22010P   23028.21538140  .00004589  00000-0  30617-3 0  9995,2 51469  53.2161 340.9608 0001218  86.1106 274.0025 15.08847682 55750,6917.857,95.437,540.565,538.879,0.0
51469.0,STARLINK-3182,PAYLOAD,2023-01-28 06:45:32,15.08848762,0.0001244,53.2163,340.6626,84.7345,275.3789,0.00059,9.117e-05,0.0,0 STARLINK-3182,1 51469U 22010P   23028.28162241  .00009117  00000-0  59000-3 0  9996,2 51469  53.2163 340.6626 0001244  84.7345 275.3789 15.08848762 55264,6917.854,95.437,540.579,538.858,0.0
